NORAD_CAT_ID,OBJECT_NAME,OBJECT_TYPE,EPOCH,MEAN_MOTION,ECCENTRICITY,INCLINATION,RA_OF_ASC_NODE,ARG_OF_PERICENTER,MEAN_ANOMALY,BSTAR,MEAN_MOTION_DOT,MEAN_MOTION_DDOT,TLE_LINE0,TLE_LINE1,TLE_LINE2,SEMIMAJOR_AXIS,PERIOD,APOGEE,PERIGEE,DECAYED
53607.0,STARLINK-4591,PAYLOAD,2024-08-05 15:03:21,15.08863716,0.0001337,53.217,327.6663,86.6881,273.4264,0.00035536,5.376e-05,0.0,0 STARLINK-4591,1 53607U 22104V   24218.62733021  .00005376  00000-0  35536-3 0  9997,2 53607  53.2170 327.6663 0001337  86.6881 273.4264 15.08863716107275,6917.808,95.436,540.598,538.748,0.0
53607.0,STARLINK-4591,PAYLOAD,2024-08-06 00:35:40,15.08841777,0.0001402,53.2171,325.8836,93.8496,266.2656,-1.0776e-05,-4.59e-06,0.0,0 STARLINK-4591,1 53607U 22104V   24219.02477809 -.00000459  00000-0 -10776-4 0  9990,2 53607  53.2171 325.8836 0001402  93.8496 266.2656 15.08841777107338,6917.875,95.437,540.71,538.77,0.0
53607.0,STARLINK-4591,PAYLOAD,2024-08-06 13:18:46,15.08826092,0.0001326,53.2171,323.5027,105.6202,254.4937,-0.0002808,-4.752e-05,0.0,0 STARLINK-4591,1 53607U 22104V   24219.55470726 -.00004752  00000-0 -28080-3 0  9995,2 53607  53.2171 323.5027 0001326 105.6202 254.4937 15.08826092107410,6917.923,95.438,540.705,538.871,0.0
53607.0,STARLINK-4591,PAYLOAD,2024-08-07 11:34:10,15.08846099,0.0001533,53.2173,319.3422,103.5074,256.6089,0.00033289,5.015e-05,0.0,0 STARLINK-4591,1 53607U 22104V   24220.48206592  .00005015  00000-0  33289-3 0  9995,2 53607  53.2173 319.3422 0001533 103.5074 256.6089 15.08846099107554,6917.862,95.437,540.787,538.666,0.0
53607.0,STARLINK-4591,PAYLOAD,2024-08-08 13:00:20,15.08858631,0.0001499,53.2176,314.5829,105.6391,254.4767,0.00055971,8.636e-05,0.0,0 STARLINK-4591,1 53607U 22104V   24221.54190243  .00008636  00000-0  55971-3 0  9992,2 53607  53.2176 314.5829 0001499 105.6391 254.4767 15.08858631108400,6917.823,95.436,540.725,538.651,0.0
53607.0,STARLINK-4591,PAYLOAD,2024-08-09 12:51:07,15.08848916,0.0001397,53.2165,310.1262,81.859,278.2561,0.00019833,2.871e-05,0.0,0 STARLINK-4591,1 53607U 22104V   24222.53550257  .00002871  00000-0  19833-3 0  9999,2 53607  53.2165 310.1262 0001397  81.8590 278.2561 15.08848916107864,6917.853,95.437,540.685,538.752,0.0
53607.0,STARLINK-4591,PAYLOAD,2024-08-09 16:01:53,15.08852979,0.0001333,53.2161,309.5267,69.3576,290.7559,0.00034845,5.264e-05,0.0,0 STARLINK-4591,1 53607U 22104V   24222.66798140  .00005264  00000-0  34845-3 0  9997,2 53607  53.2161 309.5267 0001333  69.3576 290.7559 15.08852979108571,6917.841,95.437,540.628,538.784,0.0
53607.0,STARLINK-4591,PAYLOAD,2024-08-10 11:06:31,15.0884285,0.0001767,53.217,305.9601,103.9192,256.1996,0.00042334,6.456e-05,0.0,0 STARLINK-4591,1 53607U 22104V   24223.46286674  .00006456  00000-0  42334-3 0  9996,2 53607  53.2170 305.9601 0001767 103.9192 256.1996 15.08842850108009,6917.872,95.437,540.959,538.514,0.0
53607.0,STARLINK-4591,PAYLOAD,2024-08-10 22:14:13,15.08837225,0.0001793,53.2156,303.8752,78.6251,281.4942,0.0003716,5.63e-05,0.0,0 STARLINK-4591,1 53607U 22104V   24223.92654747  .00005630  00000-0  37160-3 0  9991,2 53607  53.2156 303.8752 0001793  78.6251 281.4942 15.08837225108079,6917.889,95.438,540.994,538.513,0.0
53607.0,STARLINK-4591,PAYLOAD,2024-08-11 12:32:42,15.08840273,8.25e-05,53.2158,301.2013,90.2211,269.8875,0.00024254,3.574e-05,0.0,0 STARLINK-4591,1 53607U 22104V   24224.52271372  .00003574  00000-0  24254-3 0  9992,2 53607  53.2158 301.2013 0000825  90.2211 269.8875 15.08840273108166,6917.88,95.438,540.315,539.174,0.0
53607.0,STARLINK-4591,PAYLOAD,2024-08-11 22:05:01,15.08851049,0.0001518,53.2158,299.4171,79.5382,280.5781,0.00058482,9.034e-05,0.0,0 STARLINK-4591,1 53607U 22104V   24224.92015086  .00009034  00000-0  58482-3 0  9991,2 53607  53.2158 299.4171 0001518  79.5382 280.5781 15.08851049108910,6917.847,95.437,540.762,538.661,0.0
53607.0,STARLINK-4591,PAYLOAD,2024-08-12 13:58:50,15.08888642,0.000176,53.2139,296.44,93.4681,266.6512,0.00096134,0.00015065,0.0,0 STARLINK-4591,1 53607U 22104V   24225.58253060  .00015065  00000-0  96134-3 0  9997,2 53607  53.2139 296.4400 0001760  93.4681 266.6512 15.08888642109015,6917.732,95.434,540.814,538.379,0.0
53607.0,STARLINK-4591,PAYLOAD,2024-08-13 04:17:19,15.08851385,0.0002082,53.2146,293.7694,103.8662,256.2562,-1.2389e-05,-4.86e-06,0.0,0 STARLINK-4591,1 53607U 22104V   24226.17869610 -.00000486  00000-0 -12389-4 0  9991,2 53607  53.2146 293.7694 0002082 103.8662 256.2562 15.08851385108418,6917.846,95.437,541.151,538.27,0.0
53607.0,STARLINK-4591,PAYLOAD,2024-08-13 10:38:54,15.08773337,0.0001498,53.2167,292.5813,68.602,291.5132,-0.0017057,-0.00027282,0.0,0 STARLINK-4591,1 53607U 22104V   24226.44368342 -.00027282  00000-0 -17057-2 0  9995,2 53607  53.2167 292.5813 0001498  68.6020 291.5132 15.08773337108456,6918.084,95.442,540.985,538.913,0.0
53607.0,STARLINK-4591,PAYLOAD,2024-08-13 21:46:37,15.0877976,0.000131,53.2161,290.495,85.1819,274.9323,-0.00097682,-0.00015775,0.0,0 STARLINK-4591,1 53607U 22104V   24226.90737932 -.00015775  00000-0 -97682-3 0  9998,2 53607  53.2161 290.4950 0001310  85.1819 274.9323 15.08779760109210,6918.065,95.441,540.836,539.023,0.0
53607.0,STARLINK-4591,PAYLOAD,2024-08-14 04:08:09,15.0880929,3.47e-05,53.2157,289.3056,87.2989,272.8043,-4.2964e-05,-9.7e-06,0.0,0 STARLINK-4591,1 53607U 22104V   24227.17233565 -.00000970  00000-0 -42964-4 0  9996,2 53607  53.2157 289.3056 0000347  87.2989 272.8043 15.08809290108564,6917.974,95.439,540.079,539.599,0.0
53607.0,STARLINK-4591,PAYLOAD,2024-08-14 10:29:42,15.08836838,0.0001805,53.2147,288.118,75.2534,284.8658,0.00075162,0.00011693,0.0,0 STARLINK-4591,1 53607U 22104V   24227.43729645  .00011693  00000-0  75162-3 0  9991,2 53607  53.2147 288.1180 0001805  75.2534 284.8658 15.08836838108609,6917.89,95.438,541.004,538.506,0.0
53607.0,STARLINK-4591,PAYLOAD,2024-08-14 21:37:24,15.08844908,0.0001959,53.2144,286.0363,75.8018,284.3192,0.0010072,0.0001578,0.0,0 STARLINK-4591,1 53607U 22104V   24227.90097892  .00015780  00000-0  10072-2 0  9994,2 53607  53.2144 286.0363 0001959  75.8018 284.3192 15.08844908109368,6917.865,95.437,541.086,538.375,0.0
53607.0,STARLINK-4591,PAYLOAD,2024-08-15 10:20:29,15.08858831,0.0001938,53.216,283.6571,79.5947,280.5264,0.00093847,0.00014687,0.0,0 STARLINK-4591,1 53607U 22104V   24228.43089297  .00014687  00000-0  93847-3 0  9990,2 53607  53.2160 283.6571 0001938  79.5947 280.5264 15.08858831109446,6917.823,95.436,541.029,538.347,0.0
53607.0,STARLINK-4591,PAYLOAD,2024-08-16 10:11:15,15.08854151,0.0001837,53.2162,279.1958,75.6376,284.482,-4.9574e-05,-1.077e-05,0.0,0 STARLINK-4591,1 53607U 22104V   24229.42448006 -.00001077  00000-0 -49574-4 0  9997,2 53607  53.2162 279.1958 0001837  75.6376 284.4820 15.08854151108900,6917.837,95.437,540.973,538.431,0.0
53607.0,STARLINK-4591,PAYLOAD,2024-08-17 10:02:01,15.08853741,0.0001748,53.2168,274.7374,81.0344,279.0846,-3.0635e-05,-7.76e-06,0.0,0 STARLINK-4591,1 53607U 22104V   24230.41807678 -.00000776  00000-0 -30635-4 0  9995,2 53607  53.2168 274.7374 0001748  81.0344 279.0846 15.08853741109741,6917.838,95.437,540.913,538.494,0.0
53607.0,STARLINK-4591,PAYLOAD,2024-08-18 03:31:16,15.08839107,0.0001872,53.2175,271.4675,88.7741,271.3466,5.1399e-05,5.3e-06,0.0,0 STARLINK-4591,1 53607U 22104V   24231.14672132  .00000530  00000-0  51399-4 0  9997,2 53607  53.2175 271.4675 0001872  88.7741 271.3466 15.08839107109169,6917.883,95.438,541.043,538.453,0.0
53607.0,STARLINK-4591,PAYLOAD,2024-08-18 13:03:35,15.08839607,0.0001811,53.2171,269.6809,92.3623,267.7576,3.7046e-05,3.02e-06,0.0,0 STARLINK-4591,1 53607U 22104V   24231.54415987  .00000302  00000-0  37046-4 0  9994,2 53607  53.2171 269.6809 0001811  92.3623 267.7576 15.08839607109915,6917.882,95.438,540.999,538.494,0.0
53607.0,STARLINK-4591,PAYLOAD,2024-08-19 11:18:59,15.08837293,0.000173,53.2164,265.5163,89.121,270.9981,1.0931e-05,-1.14e-06,0.0,0 STARLINK-4591,1 53607U 22104V   24232.47152330 -.00000114  00000-0  10931-4 0  9993,2 53607  53.2164 265.5163 0001730  89.1210 270.9981 15.08837293109365,6917.889,95.438,540.95,538.557,0.0
53607.0,STARLINK-4591,PAYLOAD,2024-08-20 07:59:00,15.08840093,0.0001705,53.2162,261.6496,85.3309,274.7878,8.2168e-05,1.02e-05,0.0,0 STARLINK-4591,1 53607U 22104V   24233.33264108  .00001020  00000-0  82168-4 0  9993,2 53607  53.2162 261.6496 0001705  85.3309 274.7878 15.08840093110189,6917.88,95.438,540.925,538.566,0.0
53607.0,STARLINK-4591,PAYLOAD,2024-08-21 01:28:15,15.08833538,0.0001668,53.216,258.3806,88.587,271.5313,5.7341e-05,6.25e-06,0.0,0 STARLINK-4591,1 53607U 22104V   24234.06128752  .00000625  00000-0  57341-4 0  9993,2 53607  53.2160 258.3806 0001668  88.5870 271.5313 15.08833538109601,6917.9,95.438,540.919,538.611,0.0
53607.0,STARLINK-4591,PAYLOAD,2024-08-21 11:00:34,15.08836736,0.0001607,53.2156,256.5956,88.6162,271.5015,3.7417e-05,3.07e-06,0.0,0 STARLINK-4591,1 53607U 22104V   24234.45872724  .00000307  00000-0  37417-4 0  9990,2 53607  53.2156 256.5956 0001607  88.6162 271.5015 15.08836736110356,6917.89,95.438,540.867,538.644,0.0
